<?xml version="1.0" encoding="UTF-8"?>
<ndm xmlns:xsi="http://www.w3.org/2001/XMLSchema-instance" xsi:noNamespaceSchemaLocation="https://sanaregistry.org/r/ndmxml_unqualified/ndmxml-2.0.0-master-2.0.xsd">
<omm id="CCSDS_OMM_VERS" version="2.0">
<header><CREATION_DATE/><ORIGINATOR/></header><body><segment><metadata><OBJECT_NAME>ORBCOMM FM24</OBJECT_NAME><OBJECT_ID>1998-053D</OBJECT_ID><CENTER_NAME>EARTH</CENTER_NAME><REF_FRAME>TEME</REF_FRAME><TIME_SYSTEM>UTC</TIME_SYSTEM><MEAN_ELEMENT_THEORY>SGP4</MEAN_ELEMENT_THEORY></metadata><data><meanElements><EPOCH>2024-11-07T19:57:47.929536</EPOCH><MEAN_MOTION>14.36918408</MEAN_MOTION><ECCENTRICITY>.0000773</ECCENTRICITY><INCLINATION>45.0069</INCLINATION><RA_OF_ASC_NODE>237.7792</RA_OF_ASC_NODE><ARG_OF_PERICENTER>242.5422</ARG_OF_PERICENTER><MEAN_ANOMALY>117.5348</MEAN_ANOMALY></meanElements><tleParameters><EPHEMERIS_TYPE>0</EPHEMERIS_TYPE><CLASSIFICATION_TYPE>U</CLASSIFICATION_TYPE><NORAD_CAT_ID>25478</NORAD_CAT_ID><ELEMENT_SET_NO>999</ELEMENT_SET_NO><REV_AT_EPOCH>36587</REV_AT_EPOCH><BSTAR>.19018E-2</BSTAR><MEAN_MOTION_DOT>.5542E-4</MEAN_MOTION_DOT><MEAN_MOTION_DDOT>0</MEAN_MOTION_DDOT></tleParameters></data></segment></body></omm>
<omm id="CCSDS_OMM_VERS" version="2.0">
<header><CREATION_DATE/><ORIGINATOR/></header><body><segment><metadata><OBJECT_NAME>ORBCOMM FM25</OBJECT_NAME><OBJECT_ID>1998-053E</OBJECT_ID><CENTER_NAME>EARTH</CENTER_NAME><REF_FRAME>TEME</REF_FRAME><TIME_SYSTEM>UTC</TIME_SYSTEM><MEAN_ELEMENT_THEORY>SGP4</MEAN_ELEMENT_THEORY></metadata><data><meanElements><EPOCH>2024-11-07T19:12:18.766080</EPOCH><MEAN_MOTION>14.36910107</MEAN_MOTION><ECCENTRICITY>.0003233</ECCENTRICITY><INCLINATION>45.0065</INCLINATION><RA_OF_ASC_NODE>236.1827</RA_OF_ASC_NODE><ARG_OF_PERICENTER>229.0583</ARG_OF_PERICENTER><MEAN_ANOMALY>130.9985</MEAN_ANOMALY></meanElements><tleParameters><EPHEMERIS_TYPE>0</EPHEMERIS_TYPE><CLASSIFICATION_TYPE>U</CLASSIFICATION_TYPE><NORAD_CAT_ID>25479</NORAD_CAT_ID><ELEMENT_SET_NO>999</ELEMENT_SET_NO><REV_AT_EPOCH>36588</REV_AT_EPOCH><BSTAR>.20136E-2</BSTAR><MEAN_MOTION_DOT>.5876E-4</MEAN_MOTION_DOT><MEAN_MOTION_DDOT>0</MEAN_MOTION_DDOT></tleParameters></data></segment></body></omm>
<omm id="CCSDS_OMM_VERS" version="2.0">
<header><CREATION_DATE/><ORIGINATOR/></header><body><segment><metadata><OBJECT_NAME>ORBCOMM FM26</OBJECT_NAME><OBJECT_ID>1998-053F</OBJECT_ID><CENTER_NAME>EARTH</CENTER_NAME><REF_FRAME>TEME</REF_FRAME><TIME_SYSTEM>UTC</TIME_SYSTEM><MEAN_ELEMENT_THEORY>SGP4</MEAN_ELEMENT_THEORY></metadata><data><meanElements><EPOCH>2024-11-07T19:37:15.261600</EPOCH><MEAN_MOTION>14.36148590</MEAN_MOTION><ECCENTRICITY>.0005558</ECCENTRICITY><INCLINATION>45.0059</INCLINATION><RA_OF_ASC_NODE>231.0965</RA_OF_ASC_NODE><ARG_OF_PERICENTER>246.5667</ARG_OF_PERICENTER><MEAN_ANOMALY>113.4596</MEAN_ANOMALY></meanElements><tleParameters><EPHEMERIS_TYPE>0</EPHEMERIS_TYPE><CLASSIFICATION_TYPE>U</CLASSIFICATION_TYPE><NORAD_CAT_ID>25480</NORAD_CAT_ID><ELEMENT_SET_NO>999</ELEMENT_SET_NO><REV_AT_EPOCH>36591</REV_AT_EPOCH><BSTAR>.17424E-2</BSTAR><MEAN_MOTION_DOT>.4987E-4</MEAN_MOTION_DOT><MEAN_MOTION_DDOT>0</MEAN_MOTION_DDOT></tleParameters></data></segment></body></omm>
<omm id="CCSDS_OMM_VERS" version="2.0">
<header><CREATION_DATE/><ORIGINATOR/></header><body><segment><metadata><OBJECT_NAME>ORBCOMM FM27</OBJECT_NAME><OBJECT_ID>1998-053G</OBJECT_ID><CENTER_NAME>EARTH</CENTER_NAME><REF_FRAME>TEME</REF_FRAME><TIME_SYSTEM>UTC</TIME_SYSTEM><MEAN_ELEMENT_THEORY>SGP4</MEAN_ELEMENT_THEORY></metadata><data><meanElements><EPOCH>2024-11-07T12:16:44.374080</EPOCH><MEAN_MOTION>14.36897880</MEAN_MOTION><ECCENTRICITY>.0001185</ECCENTRICITY><INCLINATION>45.0044</INCLINATION><RA_OF_ASC_NODE>237.8030</RA_OF_ASC_NODE><ARG_OF_PERICENTER>345.0039</ARG_OF_PERICENTER><MEAN_ANOMALY>15.0773</MEAN_ANOMALY></meanElements><tleParameters><EPHEMERIS_TYPE>0</EPHEMERIS_TYPE><CLASSIFICATION_TYPE>U</CLASSIFICATION_TYPE><NORAD_CAT_ID>25481</NORAD_CAT_ID><ELEMENT_SET_NO>999</ELEMENT_SET_NO><REV_AT_EPOCH>36577</REV_AT_EPOCH><BSTAR>.19274E-2</BSTAR><MEAN_MOTION_DOT>.5617E-4</MEAN_MOTION_DOT><MEAN_MOTION_DDOT>0</MEAN_MOTION_DDOT></tleParameters></data></segment></body></omm>
<omm id="CCSDS_OMM_VERS" version="2.0">
<header><CREATION_DATE/><ORIGINATOR/></header><body><segment><metadata><OBJECT_NAME>ORBCOMM FM28</OBJECT_NAME><OBJECT_ID>1998-053H</OBJECT_ID><CENTER_NAME>EARTH</CENTER_NAME><REF_FRAME>TEME</REF_FRAME><TIME_SYSTEM>UTC</TIME_SYSTEM><MEAN_ELEMENT_THEORY>SGP4</MEAN_ELEMENT_THEORY></metadata><data><meanElements><EPOCH>2024-11-07T19:06:24.685920</EPOCH><MEAN_MOTION>14.37217067</MEAN_MOTION><ECCENTRICITY>.0003569</ECCENTRICITY><INCLINATION>45.0036</INCLINATION><RA_OF_ASC_NODE>174.3770</RA_OF_ASC_NODE><ARG_OF_PERICENTER>267.2125</ARG_OF_PERICENTER><MEAN_ANOMALY>92.8314</MEAN_ANOMALY></meanElements><tleParameters><EPHEMERIS_TYPE>0</EPHEMERIS_TYPE><CLASSIFICATION_TYPE>U</CLASSIFICATION_TYPE><NORAD_CAT_ID>25482</NORAD_CAT_ID><ELEMENT_SET_NO>999</ELEMENT_SET_NO><REV_AT_EPOCH>36666</REV_AT_EPOCH><BSTAR>.15417E-2</BSTAR><MEAN_MOTION_DOT>.4494E-4</MEAN_MOTION_DOT><MEAN_MOTION_DDOT>0</MEAN_MOTION_DDOT></tleParameters></data></segment></body></omm>
<omm id="CCSDS_OMM_VERS" version="2.0">
<header><CREATION_DATE/><ORIGINATOR/></header><body><segment><metadata><OBJECT_NAME>ORBCOMM FM30</OBJECT_NAME><OBJECT_ID>1999-065A</OBJECT_ID><CENTER_NAME>EARTH</CENTER_NAME><REF_FRAME>TEME</REF_FRAME><TIME_SYSTEM>UTC</TIME_SYSTEM><MEAN_ELEMENT_THEORY>SGP4</MEAN_ELEMENT_THEORY></metadata><data><meanElements><EPOCH>2024-11-07T18:17:19.593312</EPOCH><MEAN_MOTION>14.36294663</MEAN_MOTION><ECCENTRICITY>.0005924</ECCENTRICITY><INCLINATION>45.0318</INCLINATION><RA_OF_ASC_NODE>57.0613</RA_OF_ASC_NODE><ARG_OF_PERICENTER>321.3141</ARG_OF_PERICENTER><MEAN_ANOMALY>38.7282</MEAN_ANOMALY></meanElements><tleParameters><EPHEMERIS_TYPE>0</EPHEMERIS_TYPE><CLASSIFICATION_TYPE>U</CLASSIFICATION_TYPE><NORAD_CAT_ID>25980</NORAD_CAT_ID><ELEMENT_SET_NO>999</ELEMENT_SET_NO><REV_AT_EPOCH>30313</REV_AT_EPOCH><BSTAR>.18571E-2</BSTAR><MEAN_MOTION_DOT>.5341E-4</MEAN_MOTION_DOT><MEAN_MOTION_DDOT>0</MEAN_MOTION_DDOT></tleParameters></data></segment></body></omm>
<omm id="CCSDS_OMM_VERS" version="2.0">
<header><CREATION_DATE/><ORIGINATOR/></header><body><segment><metadata><OBJECT_NAME>ORBCOMM FM31</OBJECT_NAME><OBJECT_ID>1999-065B</OBJECT_ID><CENTER_NAME>EARTH</CENTER_NAME><REF_FRAME>TEME</REF_FRAME><TIME_SYSTEM>UTC</TIME_SYSTEM><MEAN_ELEMENT_THEORY>SGP4</MEAN_ELEMENT_THEORY></metadata><data><meanElements><EPOCH>2024-11-07T19:10:19.218720</EPOCH><MEAN_MOTION>14.36273315</MEAN_MOTION><ECCENTRICITY>.0002796</ECCENTRICITY><INCLINATION>45.0231</INCLINATION><RA_OF_ASC_NODE>50.4683</RA_OF_ASC_NODE><ARG_OF_PERICENTER>332.2340</ARG_OF_PERICENTER><MEAN_ANOMALY>27.8358</MEAN_ANOMALY></meanElements><tleParameters><EPHEMERIS_TYPE>0</EPHEMERIS_TYPE><CLASSIFICATION_TYPE>U</CLASSIFICATION_TYPE><NORAD_CAT_ID>25981</NORAD_CAT_ID><ELEMENT_SET_NO>999</ELEMENT_SET_NO><REV_AT_EPOCH>30313</REV_AT_EPOCH><BSTAR>.17715E-2</BSTAR><MEAN_MOTION_DOT>.5085E-4</MEAN_MOTION_DOT><MEAN_MOTION_DDOT>0</MEAN_MOTION_DDOT></tleParameters></data></segment></body></omm>
<omm id="CCSDS_OMM_VERS" version="2.0">
<header><CREATION_DATE/><ORIGINATOR/></header><body><segment><metadata><OBJECT_NAME>ORBCOMM FM32</OBJECT_NAME><OBJECT_ID>1999-065C</OBJECT_ID><CENTER_NAME>EARTH</CENTER_NAME><REF_FRAME>TEME</REF_FRAME><TIME_SYSTEM>UTC</TIME_SYSTEM><MEAN_ELEMENT_THEORY>SGP4</MEAN_ELEMENT_THEORY></metadata><data><meanElements><EPOCH>2024-11-07T16:43:11.862912</EPOCH><MEAN_MOTION>14.35289468</MEAN_MOTION><ECCENTRICITY>.0004458</ECCENTRICITY><INCLINATION>45.0152</INCLINATION><RA_OF_ASC_NODE>66.0250</RA_OF_ASC_NODE><ARG_OF_PERICENTER>347.7916</ARG_OF_PERICENTER><MEAN_ANOMALY>12.2823</MEAN_ANOMALY></meanElements><tleParameters><EPHEMERIS_TYPE>0</EPHEMERIS_TYPE><CLASSIFICATION_TYPE>U</CLASSIFICATION_TYPE><NORAD_CAT_ID>25982</NORAD_CAT_ID><ELEMENT_SET_NO>999</ELEMENT_SET_NO><REV_AT_EPOCH>30289</REV_AT_EPOCH><BSTAR>.18474E-2</BSTAR><MEAN_MOTION_DOT>.5203E-4</MEAN_MOTION_DOT><MEAN_MOTION_DDOT>0</MEAN_MOTION_DDOT></tleParameters></data></segment></body></omm>

</ndm>
