ORBCOMM FM24            
1 25478U 98053D   24312.83180474  .00005542  00000+0  19018-2 0  9994
2 25478  45.0069 237.7792 0000773 242.5422 117.5348 14.36918408365879
ORBCOMM FM25            
1 25479U 98053E   24312.80021720  .00005876  00000+0  20136-2 0  9993
2 25479  45.0065 236.1827 0003233 229.0583 130.9985 14.36910107365885
ORBCOMM FM26            
1 25480U 98053F   24312.81753775  .00004987  00000+0  17424-2 0  9996
2 25480  45.0059 231.0965 0005558 246.5667 113.4596 14.36148590365913
ORBCOMM FM27            
1 25481U 98053G   24312.51162470  .00005617  00000+0  19274-2 0  9996
2 25481  45.0044 237.8030 0001185 345.0039  15.0773 14.36897880365776
ORBCOMM FM28            
1 25482U 98053H   24312.79611905  .00004494  00000+0  15417-2 0  9996
2 25482  45.0036 174.3770 0003569 267.2125  92.8314 14.37217067366660
ORBCOMM FM30            
1 25980U 99065A   24312.76203233  .00005341  00000+0  18571-2 0  9997
2 25980  45.0318  57.0613 0005924 321.3141  38.7282 14.36294663303138
ORBCOMM FM31            
1 25981U 99065B   24312.79883355  .00005085  00000+0  17715-2 0  9994
2 25981  45.0231  50.4683 0002796 332.2340  27.8358 14.36273315303137
ORBCOMM FM32            
1 25982U 99065C   24312.69666508  .00005203  00000+0  18474-2 0  9998
2 25982  45.0152  66.0250 0004458 347.7916  12.2823 14.35289468302892
